{"type": "FeatureCollection", "features": [{"type": "Feature", "properties": {"norad_id": 26766, "name": "INTELSAT 10 (IS-10)", "group": "intelsat", "lat": 6.929862615900627, "lon": 113.84189293990175, "alt_km": 36157.344646141944, "timestamp": "2025-12-21T18:54:58.160679+00:00", "meta": {"OBJECT_NAME": "INTELSAT 10 (IS-10)", "OBJECT_ID": "2001-019A", "EPOCH": "2025-12-21T14:52:07.850784", "MEAN_MOTION": 0.9907389, "ECCENTRICITY": 0.00077398, "INCLINATION": 8.6491, "RA_OF_ASC_NODE": 61.0673, "ARG_OF_PERICENTER": 228.576, "MEAN_ANOMALY": 124.3765, "EPHEMERIS_TYPE": 0, "CLASSIFICATION_TYPE": "U", "NORAD_CAT_ID": 26766, "ELEMENT_SET_NO": 999, "REV_AT_EPOCH": 4381, "BSTAR": 0, "MEAN_MOTION_DOT": -7.5e-07, "MEAN_MOTION_DDOT": 0}, "tle": {"line1": "1 26766U 01019A   25355.61953531 -.00000075  00000+0  00000+0 0  9992", "line2": "2 26766   8.6491  61.0673 0007739 228.5760 124.3765  0.99073890 43815"}}, "geometry": {"type": "Point", "coordinates": [113.84189293990175, 6.929862615900627]}}, {"type": "Feature", "properties": {"norad_id": 26900, "name": "INTELSAT 902 (IS-902)", "group": "intelsat", "lat": -5.355112896504503, "lon": -35.85221923635402, "alt_km": 35778.28312250622, "timestamp": "2025-12-21T18:54:58.160703+00:00", "meta": {"OBJECT_NAME": "INTELSAT 902 (IS-902)", "OBJECT_ID": "2001-039A", "EPOCH": "2025-12-15T13:09:02.081664", "MEAN_MOTION": 1.0027087, "ECCENTRICITY": 0.00045028, "INCLINATION": 5.6536, "RA_OF_ASC_NODE": 74.0372, "ARG_OF_PERICENTER": 189.6359, "MEAN_ANOMALY": 327.9329, "EPHEMERIS_TYPE": 0, "CLASSIFICATION_TYPE": "U", "NORAD_CAT_ID": 26900, "ELEMENT_SET_NO": 999, "REV_AT_EPOCH": 8885, "BSTAR": 0, "MEAN_MOTION_DOT": -2.65e-06, "MEAN_MOTION_DDOT": 0}, "tle": {"line1": "1 26900U 01039A   25349.54794076 -.00000265  00000+0  00000+0 0  9997", "line2": "2 26900   5.6536  74.0372 0004502 189.6359 327.9329  1.00270870 88858"}}, "geometry": {"type": "Point", "coordinates": [-35.85221923635402, -5.355112896504503]}}, {"type": "Feature", "properties": {"norad_id": 27380, "name": "INTELSAT 904 (IS-904)", "group": "intelsat", "lat": -6.487590271946416, "lon": -17.145453793288286, "alt_km": 35779.99472050495, "timestamp": "2025-12-21T18:54:58.160719+00:00", "meta": {"OBJECT_NAME": "INTELSAT 904 (IS-904)", "OBJECT_ID": "2002-007A", "EPOCH": "2025-12-21T11:20:13.445376", "MEAN_MOTION": 1.00270601, "ECCENTRICITY": 0.00018754, "INCLINATION": 6.475, "RA_OF_ASC_NODE": 71.332, "ARG_OF_PERICENTER": 249.2884, "MEAN_ANOMALY": 268.2201, "EPHEMERIS_TYPE": 0, "CLASSIFICATION_TYPE": "U", "NORAD_CAT_ID": 27380, "ELEMENT_SET_NO": 999, "REV_AT_EPOCH": 4998, "BSTAR": 0, "MEAN_MOTION_DOT": -2.08e-06, "MEAN_MOTION_DDOT": 0}, "tle": {"line1": "1 27380U 02007A   25355.47237784 -.00000208  00000+0  00000+0 0  9990", "line2": "2 27380   6.4750  71.3320 0001875 249.2884 268.2201  1.00270601 49986"}}, "geometry": {"type": "Point", "coordinates": [-17.145453793288286, -6.487590271946416]}}, {"type": "Feature", "properties": {"norad_id": 27426, "name": "DIRECTV 5 (TEMPO 1)", "group": "intelsat", "lat": -0.53775920267039, "lon": -95.80420729377148, "alt_km": 35773.14553058525, "timestamp": "2025-12-21T18:54:58.160733+00:00", "meta": {"OBJECT_NAME": "DIRECTV 5 (TEMPO 1)", "OBJECT_ID": "2002-023A", "EPOCH": "2025-12-21T12:47:29.846112", "MEAN_MOTION": 1.00271719, "ECCENTRICITY": 0.00031526, "INCLINATION": 4.4231, "RA_OF_ASC_NODE": 77.5502, "ARG_OF_PERICENTER": 199.4704, "MEAN_ANOMALY": 255.0854, "EPHEMERIS_TYPE": 0, "CLASSIFICATION_TYPE": "U", "NORAD_CAT_ID": 27426, "ELEMENT_SET_NO": 999, "REV_AT_EPOCH": 8634, "BSTAR": 0, "MEAN_MOTION_DOT": -3.8e-07, "MEAN_MOTION_DDOT": 0}, "tle": {"line1": "1 27426U 02023A   25355.53298433 -.00000038  00000+0  00000+0 0  9995", "line2": "2 27426   4.4231  77.5502 0003152 199.4704 255.0854  1.00271719 86346"}}, "geometry": {"type": "Point", "coordinates": [-95.80420729377148, -0.53775920267039]}}, {"type": "Feature", "properties": {"norad_id": 27438, "name": "INTELSAT 905 (IS-905)", "group": "intelsat", "lat": 1.595171762221562, "lon": -122.79286210185224, "alt_km": 35776.64688485828, "timestamp": "2025-12-21T18:54:58.160745+00:00", "meta": {"OBJECT_NAME": "INTELSAT 905 (IS-905)", "OBJECT_ID": "2002-027A", "EPOCH": "2025-12-21T11:38:50.085024", "MEAN_MOTION": 1.00272793, "ECCENTRICITY": 0.00026882, "INCLINATION": 6.3061, "RA_OF_ASC_NODE": 71.9555, "ARG_OF_PERICENTER": 203.6165, "MEAN_ANOMALY": 212.2349, "EPHEMERIS_TYPE": 0, "CLASSIFICATION_TYPE": "U", "NORAD_CAT_ID": 27438, "ELEMENT_SET_NO": 999, "REV_AT_EPOCH": 4958, "BSTAR": 0, "MEAN_MOTION_DOT": 1.12e-06, "MEAN_MOTION_DDOT": 0}, "tle": {"line1": "1 27438U 02027A   25355.48530191  .00000112  00000+0  00000+0 0  9998", "line2": "2 27438   6.3061  71.9555 0002688 203.6165 212.2349  1.00272793 49581"}}, "geometry": {"type": "Point", "coordinates": [-122.79286210185224, 1.595171762221562]}}, {"type": "Feature", "properties": {"norad_id": 27445, "name": "GALAXY 3C (G-3C)", "group": "intelsat", "lat": -1.0996890272395188, "lon": -80.53322997569312, "alt_km": 35788.518134488375, "timestamp": "2025-12-21T18:54:58.160757+00:00", "meta": {"OBJECT_NAME": "GALAXY 3C (G-3C)", "OBJECT_ID": "2002-030A", "EPOCH": "2025-12-21T12:54:15.360192", "MEAN_MOTION": 1.00271958, "ECCENTRICITY": 0.00011316, "INCLINATION": 3.2843, "RA_OF_ASC_NODE": 80.4144, "ARG_OF_PERICENTER": 79.956, "MEAN_ANOMALY": 28.6921, "EPHEMERIS_TYPE": 0, "CLASSIFICATION_TYPE": "U", "NORAD_CAT_ID": 27445, "ELEMENT_SET_NO": 999, "REV_AT_EPOCH": 4471, "BSTAR": 0, "MEAN_MOTION_DOT": -1.32e-06, "MEAN_MOTION_DDOT": 0}, "tle": {"line1": "1 27445U 02030A   25355.53767778 -.00000132  00000+0  00000+0 0  9992", "line2": "2 27445   3.2843  80.4144 0001131  79.9560  28.6921  1.00271958 44714"}}, "geometry": {"type": "Point", "coordinates": [-80.53322997569312, -1.0996890272395188]}}, {"type": "Feature", "properties": {"norad_id": 27513, "name": "INTELSAT 906 (IS-906)", "group": "intelsat", "lat": 0.33732069145148114, "lon": 78.48151418767601, "alt_km": 35811.398982759645, "timestamp": "2025-12-21T18:54:58.160770+00:00", "meta": {"OBJECT_NAME": "INTELSAT 906 (IS-906)", "OBJECT_ID": "2002-041A", "EPOCH": "2025-12-21T04:56:34.091232", "MEAN_MOTION": 1.00272969, "ECCENTRICITY": 0.0006318, "INCLINATION": 5.3511, "RA_OF_ASC_NODE": 75.1309, "ARG_OF_PERICENTER": 199.595, "MEAN_ANOMALY": 313.578, "EPHEMERIS_TYPE": 0, "CLASSIFICATION_TYPE": "U", "NORAD_CAT_ID": 27513, "ELEMENT_SET_NO": 999, "REV_AT_EPOCH": 8524, "BSTAR": 0, "MEAN_MOTION_DOT": 3.2e-07, "MEAN_MOTION_DDOT": 0}, "tle": {"line1": "1 27513U 02041A   25355.20595013  .00000032  00000+0  00000+0 0  9993", "line2": "2 27513   5.3511  75.1309 0006318 199.5950 313.5780  1.00272969 85248"}}, "geometry": {"type": "Point", "coordinates": [78.48151418767601, 0.33732069145148114]}}, {"type": "Feature", "properties": {"norad_id": 27954, "name": "GALAXY 13 (HORIZONS-1)", "group": "intelsat", "lat": 0.62568678054306, "lon": -135.70061862476442, "alt_km": 35778.87574138869, "timestamp": "2025-12-21T18:54:58.160782+00:00", "meta": {"OBJECT_NAME": "GALAXY 13 (HORIZONS-1)", "OBJECT_ID": "2003-044A", "EPOCH": "2025-12-21T12:24:14.906880", "MEAN_MOTION": 1.00270258, "ECCENTRICITY": 0.00023713, "INCLINATION": 0.9592, "RA_OF_ASC_NODE": 86.3582, "ARG_OF_PERICENTER": 179.4188, "MEAN_ANOMALY": 220.5966, "EPHEMERIS_TYPE": 0, "CLASSIFICATION_TYPE": "U", "NORAD_CAT_ID": 27954, "ELEMENT_SET_NO": 999, "REV_AT_EPOCH": 4479, "BSTAR": 0, "MEAN_MOTION_DOT": 1.55e-06, "MEAN_MOTION_DDOT": 0}, "tle": {"line1": "1 27954U 03044A   25355.51683920  .00000155  00000+0  00000+0 0  9991", "line2": "2 27954   0.9592  86.3582 0002371 179.4188 220.5966  1.00270258 44796"}}, "geometry": {"type": "Point", "coordinates": [-135.70061862476442, 0.62568678054306]}}, {"type": "Feature", "properties": {"norad_id": 28358, "name": "INTELSAT 10-02", "group": "intelsat", "lat": -0.01462423560109087, "lon": 13.38833442317949, "alt_km": 35784.04488958431, "timestamp": "2025-12-21T18:54:58.160794+00:00", "meta": {"OBJECT_NAME": "INTELSAT 10-02", "OBJECT_ID": "2004-022A", "EPOCH": "2025-12-21T06:51:38.552832", "MEAN_MOTION": 1.00272906, "ECCENTRICITY": 9.847e-05, "INCLINATION": 0.0216, "RA_OF_ASC_NODE": 73.3158, "ARG_OF_PERICENTER": 234.5861, "MEAN_ANOMALY": 244.1552, "EPHEMERIS_TYPE": 0, "CLASSIFICATION_TYPE": "U", "NORAD_CAT_ID": 28358, "ELEMENT_SET_NO": 999, "REV_AT_EPOCH": 7877, "BSTAR": 0, "MEAN_MOTION_DOT": 1.2e-07, "MEAN_MOTION_DDOT": 0}, "tle": {"line1": "1 28358U 04022A   25355.28586288  .00000012  00000+0  00000+0 0  9992", "line2": "2 28358   0.0216  73.3158 0000984 234.5861 244.1552  1.00272906 78773"}}, "geometry": {"type": "Point", "coordinates": [13.38833442317949, -0.01462423560109087]}}, {"type": "Feature", "properties": {"norad_id": 28626, "name": "XM-3 (RHYTHM)", "group": "intelsat", "lat": 0.038381049826092764, "lon": 85.65011585197968, "alt_km": 36160.206806129485, "timestamp": "2025-12-21T18:54:58.160806+00:00", "meta": {"OBJECT_NAME": "XM-3 (RHYTHM)", "OBJECT_ID": "2005-008A", "EPOCH": "2025-12-21T13:32:30.775776", "MEAN_MOTION": 0.98949862, "ECCENTRICITY": 0.00019955, "INCLINATION": 0.1963, "RA_OF_ASC_NODE": 82.0268, "ARG_OF_PERICENTER": 277.5305, "MEAN_ANOMALY": 6.3091, "EPHEMERIS_TYPE": 0, "CLASSIFICATION_TYPE": "U", "NORAD_CAT_ID": 28626, "ELEMENT_SET_NO": 999, "REV_AT_EPOCH": 4083, "BSTAR": 0, "MEAN_MOTION_DOT": 8.7e-07, "MEAN_MOTION_DDOT": 0}, "tle": {"line1": "1 28626U 05008A   25355.56424509  .00000087  00000+0  00000+0 0  9995", "line2": "2 28626   0.1963  82.0268 0001995 277.5305   6.3091  0.98949862 40833"}}, "geometry": {"type": "Point", "coordinates": [85.65011585197968, 0.038381049826092764]}}]}